{
  "type": "FeatureCollection",
  "features": [
    {
      "type": "Feature",
      "properties": {
        "norad_id": 66586,
        "name": "TJS-21",
        "group": "last-30-days",
        "lat": 62.99062440799157,
        "lon": -115.58228383882197,
        "alt_km": 38058.99247938799,
        "timestamp": "2025-12-07T22:37:41.857678+00:00",
        "meta_object_name": "TJS-21",
        "meta_object_id": "2025-269A",
        "meta_epoch": "2025-12-06T17:47:41.602272",
        "meta_mean_motion": 2.00560491,
        "meta_eccentricity": 0.68052367,
        "meta_inclination": 63.2668,
        "meta_ra_of_asc_node": 162.9832,
        "meta_arg_of_pericenter": 269.7989,
        "meta_mean_anomaly": 18.6583,
        "meta_ephemeris_type": 0,
        "meta_classification_type": "U",
        "meta_norad_cat_id": 66586,
        "meta_element_set_no": 999,
        "meta_rev_at_epoch": 32,
        "meta_bstar": -0.014744059,
        "meta_mean_motion_dot": 1.105e-05,
        "meta_mean_motion_ddot": 0,
        "tle_line1": "1 66586U 25269A   25340.74145373  .00001105  00000+0 -14744-1 0  9991",
        "tle_line2": "2 66586  63.2668 162.9832 6805236 269.7989  18.6583  2.00560491   328"
      },
      "geometry": {
        "type": "Point",
        "coordinates": [
          -115.58228383882197,
          62.99062440799157
        ]
      }
    },
    {
      "type": "Feature",
      "properties": {
        "norad_id": 66587,
        "name": "CZ-3B R/B",
        "group": "last-30-days",
        "lat": 21.966401977719915,
        "lon": -170.45486470856108,
        "alt_km": 33114.75944096088,
        "timestamp": "2025-12-07T22:37:41.857694+00:00",
        "meta_object_name": "CZ-3B R/B",
        "meta_object_id": "2025-269B",
        "meta_epoch": "2025-12-06T20:56:55.417632",
        "meta_mean_motion": 2.02680311,
        "meta_eccentricity": 0.75198907,
        "meta_inclination": 51.3598,
        "meta_ra_of_asc_node": 171.0029,
        "meta_arg_of_pericenter": 227.6683,
        "meta_mean_anomaly": 38.3691,
        "meta_ephemeris_type": 0,
        "meta_classification_type": "U",
        "meta_norad_cat_id": 66587,
        "meta_element_set_no": 999,
        "meta_rev_at_epoch": 33,
        "meta_bstar": 0.0015659791,
        "meta_mean_motion_dot": 0.00053807,
        "meta_mean_motion_ddot": -4.99023e-07,
        "tle_line1": "1 66587U 25269B   25340.87286363  .00053807 -49902-6  15660-2 0  9997",
        "tle_line2": "2 66587  51.3598 171.0029 7519890 227.6683  38.3691  2.02680311   337"
      },
      "geometry": {
        "type": "Point",
        "coordinates": [
          -170.45486470856108,
          21.966401977719915
        ]
      }
    },
    {
      "type": "Feature",
      "properties": {
        "norad_id": 66588,
        "name": "STARLINK-36076",
        "group": "last-30-days",
        "lat": 14.741134562704712,
        "lon": 24.53601216911162,
        "alt_km": 377.86505482493067,
        "timestamp": "2025-12-07T22:37:41.857707+00:00",
        "meta_object_name": "STARLINK-36076",
        "meta_object_id": "2025-270A",
        "meta_epoch": "2025-12-07T06:00:04.999968",
        "meta_mean_motion": 15.65718024,
        "meta_eccentricity": 0.0001246,
        "meta_inclination": 42.999,
        "meta_ra_of_asc_node": 225.0742,
        "meta_arg_of_pericenter": 262.5919,
        "meta_mean_anomaly": 309.4987,
        "meta_ephemeris_type": 0,
        "meta_classification_type": "U",
        "meta_norad_cat_id": 66588,
        "meta_element_set_no": 999,
        "meta_rev_at_epoch": 351,
        "meta_bstar": -0.021753702,
        "meta_mean_motion_dot": -0.01991093,
        "meta_mean_motion_ddot": 0,
        "tle_line1": "1 66588U 25270A   25341.25005787 -.01991093  00000+0 -21754-1 0  9991",
        "tle_line2": "2 66588  42.9990 225.0742 0001246 262.5919 309.4987 15.65718024  3515"
      },
      "geometry": {
        "type": "Point",
        "coordinates": [
          24.53601216911162,
          14.741134562704712
        ]
      }
    },
    {
      "type": "Feature",
      "properties": {
        "norad_id": 66589,
        "name": "STARLINK-35447",
        "group": "last-30-days",
        "lat": 12.216991328290138,
        "lon": 27.49240108465482,
        "alt_km": 378.10779803225887,
        "timestamp": "2025-12-07T22:37:41.857717+00:00",
        "meta_object_name": "STARLINK-35447",
        "meta_object_id": "2025-270B",
        "meta_epoch": "2025-12-07T06:00:04.999968",
        "meta_mean_motion": 15.657154,
        "meta_eccentricity": 0.00014047,
        "meta_inclination": 42.9993,
        "meta_ra_of_asc_node": 225.0651,
        "meta_arg_of_pericenter": 259.5561,
        "meta_mean_anomaly": 316.371,
        "meta_ephemeris_type": 0,
        "meta_classification_type": "U",
        "meta_norad_cat_id": 66589,
        "meta_element_set_no": 999,
        "meta_rev_at_epoch": 362,
        "meta_bstar": -0.021740183,
        "meta_mean_motion_dot": -0.01989939,
        "meta_mean_motion_ddot": 0,
        "tle_line1": "1 66589U 25270B   25341.25005787 -.01989939  00000+0 -21740-1 0  9993",
        "tle_line2": "2 66589  42.9993 225.0651 0001404 259.5561 316.3710 15.65715400  3621"
      },
      "geometry": {
        "type": "Point",
        "coordinates": [
          27.49240108465482,
          12.216991328290138
        ]
      }
    },
    {
      "type": "Feature",
      "properties": {
        "norad_id": 66590,
        "name": "STARLINK-35429",
        "group": "last-30-days",
        "lat": 13.48324852869391,
        "lon": 26.022678863741017,
        "alt_km": 377.93671011816514,
        "timestamp": "2025-12-07T22:37:41.857728+00:00",
        "meta_object_name": "STARLINK-35429",
        "meta_object_id": "2025-270C",
        "meta_epoch": "2025-12-07T06:00:04.999968",
        "meta_mean_motion": 15.65713802,
        "meta_eccentricity": 0.00013659,
        "meta_inclination": 42.9993,
        "meta_ra_of_asc_node": 225.07,
        "meta_arg_of_pericenter": 259.2184,
        "meta_mean_anomaly": 314.7922,
        "meta_ephemeris_type": 0,
        "meta_classification_type": "U",
        "meta_norad_cat_id": 66590,
        "meta_element_set_no": 999,
        "meta_rev_at_epoch": 362,
        "meta_bstar": -0.021710487,
        "meta_mean_motion_dot": -0.01987406,
        "meta_mean_motion_ddot": 0,
        "tle_line1": "1 66590U 25270C   25341.25005787 -.01987406  00000+0 -21710-1 0  9999",
        "tle_line2": "2 66590  42.9993 225.0700 0001365 259.2184 314.7922 15.65713802  3623"
      },
      "geometry": {
        "type": "Point",
        "coordinates": [
          26.022678863741017,
          13.48324852869391
        ]
      }
    },
    {
      "type": "Feature",
      "properties": {
        "norad_id": 66591,
        "name": "STARLINK-36058",
        "group": "last-30-days",
        "lat": 10.942136599831946,
        "lon": 28.949321592965457,
        "alt_km": 378.32726955680664,
        "timestamp": "2025-12-07T22:37:41.857762+00:00",
        "meta_object_name": "STARLINK-36058",
        "meta_object_id": "2025-270D",
        "meta_epoch": "2025-12-07T06:00:04.999968",
        "meta_mean_motion": 15.65716409,
        "meta_eccentricity": 0.00013903,
        "meta_inclination": 42.9994,
        "meta_ra_of_asc_node": 225.0605,
        "meta_arg_of_pericenter": 261.8376,
        "meta_mean_anomaly": 316.0069,
        "meta_ephemeris_type": 0,
        "meta_classification_type": "U",
        "meta_norad_cat_id": 66591,
        "meta_element_set_no": 999,
        "meta_rev_at_epoch": 351,
        "meta_bstar": -0.021763804,
        "meta_mean_motion_dot": -0.019919,
        "meta_mean_motion_ddot": 0,
        "tle_line1": "1 66591U 25270D   25341.25005787 -.01991900  00000+0 -21764-1 0  9993",
        "tle_line2": "2 66591  42.9994 225.0605 0001390 261.8376 316.0069 15.65716409  3510"
      },
      "geometry": {
        "type": "Point",
        "coordinates": [
          28.949321592965457,
          10.942136599831946
        ]
      }
    },
    {
      "type": "Feature",
      "properties": {
        "norad_id": 66592,
        "name": "STARLINK-36066",
        "group": "last-30-days",
        "lat": 9.658335239173535,
        "lon": 30.39577029367956,
        "alt_km": 378.38690399521784,
        "timestamp": "2025-12-07T22:37:41.857774+00:00",
        "meta_object_name": "STARLINK-36066",
        "meta_object_id": "2025-270E",
        "meta_epoch": "2025-12-07T06:00:04.999968",
        "meta_mean_motion": 15.65715696,
        "meta_eccentricity": 0.00014346,
        "meta_inclination": 42.9995,
        "meta_ra_of_asc_node": 225.0557,
        "meta_arg_of_pericenter": 259.3254,
        "meta_mean_anomaly": 320.4337,
        "meta_ephemeris_type": 0,
        "meta_classification_type": "U",
        "meta_norad_cat_id": 66592,
        "meta_element_set_no": 999,
        "meta_rev_at_epoch": 341,
        "meta_bstar": -0.021720871,
        "meta_mean_motion_dot": -0.01988429,
        "meta_mean_motion_ddot": 0,
        "tle_line1": "1 66592U 25270E   25341.25005787 -.01988429  00000+0 -21721-1 0  9999",
        "tle_line2": "2 66592  42.9995 225.0557 0001434 259.3254 320.4337 15.65715696  3417"
      },
      "geometry": {
        "type": "Point",
        "coordinates": [
          30.39577029367956,
          9.658335239173535
        ]
      }
    }
  ]
}